[{"OBJECT_NAME":"LEMUR-2-ANDIS","OBJECT_ID":"2017-042P","EPOCH":"2026-03-09T13:25:33.116448","MEAN_MOTION":15.30557934,"ECCENTRICITY":0.0009101,"INCLINATION":97.3659,"RA_OF_ASC_NODE":249.795,"ARG_OF_PERICENTER":4.3248,"MEAN_ANOMALY":355.807,"EPHEMERIS_TYPE":0,"CLASSIFICATION_TYPE":"U","NORAD_CAT_ID":42838,"ELEMENT_SET_NO":999,"REV_AT_EPOCH":47319,"BSTAR":0.00079875,"MEAN_MOTION_DOT":0.00023598,"MEAN_MOTION_DDOT":0},{"OBJECT_NAME":"STARLINK-36516","OBJECT_ID":"2026-008L","EPOCH":"2026-03-09T10:08:17.691936","MEAN_MOTION":15.27594547,"ECCENTRICITY":0.00020063,"INCLINATION":42.9992,"RA_OF_ASC_NODE":206.5347,"ARG_OF_PERICENTER":299.4788,"MEAN_ANOMALY":60.5863,"EPHEMERIS_TYPE":0,"CLASSIFICATION_TYPE":"U","NORAD_CAT_ID":67455,"ELEMENT_SET_NO":999,"REV_AT_EPOCH":953,"BSTAR":0.00092263854,"MEAN_MOTION_DOT":0.00025226,"MEAN_MOTION_DDOT":0}]
